{
  "links" : {
    "next" : "https://api.nasa.gov/neo/rest/v1/feed?start_date=1998-08-23&end_date=1998-08-23&detailed=true&api_key=t0TVs3DtDT2H8Oy2Zy8m2eVrNsAVKAexjcZXUckd",
    "prev" : "https://api.nasa.gov/neo/rest/v1/feed?start_date=1998-08-21&end_date=1998-08-21&detailed=true&api_key=t0TVs3DtDT2H8Oy2Zy8m2eVrNsAVKAexjcZXUckd",
    "self" : "https://api.nasa.gov/neo/rest/v1/feed?start_date=1998-08-22&end_date=1998-08-22&detailed=true&api_key=t0TVs3DtDT2H8Oy2Zy8m2eVrNsAVKAexjcZXUckd"
  },
  "element_count" : 8,
  "near_earth_objects" : {
    "1998-08-22" : [ {
      "links" : {
        "self" : "https://api.nasa.gov/neo/rest/v1/neo/2222008?api_key=t0TVs3DtDT2H8Oy2Zy8m2eVrNsAVKAexjcZXUckd"
      },
      "neo_reference_id" : "2222008",
      "name" : "222008 (1998 QQ63)",
      "nasa_jpl_url" : "http://ssd.jpl.nasa.gov/sbdb.cgi?sstr=2222008",
      "absolute_magnitude_h" : 18.9,
      "estimated_diameter" : {
        "kilometers" : {
          "estimated_diameter_min" : 0.4411182,
          "estimated_diameter_max" : 0.9863702813
        },
        "meters" : {
          "estimated_diameter_min" : 441.1181999969,
          "estimated_diameter_max" : 986.3702813054
        },
        "miles" : {
          "estimated_diameter_min" : 0.2740980571,
          "estimated_diameter_max" : 0.6129018881
        },
        "feet" : {
          "estimated_diameter_min" : 1447.2382352778,
          "estimated_diameter_max" : 3236.1230737181
        }
      },
      "is_potentially_hazardous_asteroid" : false,
      "close_approach_data" : [ {
        "close_approach_date" : "1998-08-22",
        "epoch_date_close_approach" : 903769200000,
        "relative_velocity" : {
          "kilometers_per_second" : "14.4961721849",
          "kilometers_per_hour" : "52186.2198656875",
          "miles_per_hour" : "32426.4875604323"
        },
        "miss_distance" : {
          "astronomical" : "0.3085129508",
          "lunar" : "120.0115432739",
          "kilometers" : "46152880",
          "miles" : "28678072"
        },
        "orbiting_body" : "Earth"
      } ],
      "orbital_data" : {
        "orbit_id" : "24",
        "orbit_determination_date" : "2017-04-06 09:25:14",
        "orbit_uncertainty" : "0",
        "minimum_orbit_intersection" : ".0667001",
        "jupiter_tisserand_invariant" : "3.327",
        "epoch_osculation" : "2458000.5",
        "eccentricity" : ".5510723040628948",
        "semi_major_axis" : "2.362168306114708",
        "inclination" : "1.671077296391072",
        "ascending_node_longitude" : "104.4782552779432",
        "orbital_period" : "1326.064608001169",
        "perihelion_distance" : "1.060442775079731",
        "perihelion_argument" : "265.4702298985595",
        "aphelion_distance" : "3.663893837149686",
        "perihelion_time" : "2457709.489072334549",
        "mean_anomaly" : "79.00364230177077",
        "mean_motion" : ".2714799850835645",
        "equinox" : "J2000"
      }
    }, {
      "links" : {
        "self" : "https://api.nasa.gov/neo/rest/v1/neo/2446791?api_key=t0TVs3DtDT2H8Oy2Zy8m2eVrNsAVKAexjcZXUckd"
      },
      "neo_reference_id" : "2446791",
      "name" : "446791 (1998 SJ70)",
      "nasa_jpl_url" : "http://ssd.jpl.nasa.gov/sbdb.cgi?sstr=2446791",
      "absolute_magnitude_h" : 18.3,
      "estimated_diameter" : {
        "kilometers" : {
          "estimated_diameter_min" : 0.5815070396,
          "estimated_diameter_max" : 1.30028927
        },
        "meters" : {
          "estimated_diameter_min" : 581.5070396458,
          "estimated_diameter_max" : 1300.2892700427
        },
        "miles" : {
          "estimated_diameter_min" : 0.3613316107,
          "estimated_diameter_max" : 0.807962044
        },
        "feet" : {
          "estimated_diameter_min" : 1907.8315559515,
          "estimated_diameter_max" : 4266.0410487267
        }
      },
      "is_potentially_hazardous_asteroid" : true,
      "close_approach_data" : [ {
        "close_approach_date" : "1998-08-22",
        "epoch_date_close_approach" : 903769200000,
        "relative_velocity" : {
          "kilometers_per_second" : "14.4679123035",
          "kilometers_per_hour" : "52084.4842924308",
          "miles_per_hour" : "32363.273031594"
        },
        "miss_distance" : {
          "astronomical" : "0.2304843915",
          "lunar" : "89.6584320068",
          "kilometers" : "34479976",
          "miles" : "21424864"
        },
        "orbiting_body" : "Earth"
      } ],
      "orbital_data" : {
        "orbit_id" : "50",
        "orbit_determination_date" : "2017-04-06 09:20:20",
        "orbit_uncertainty" : "0",
        "minimum_orbit_intersection" : ".0271242",
        "jupiter_tisserand_invariant" : "3.247",
        "epoch_osculation" : "2458000.5",
        "eccentricity" : ".7051563927770607",
        "semi_major_axis" : "2.238273125243234",
        "inclination" : "7.306244416940888",
        "ascending_node_longitude" : "21.55620932883063",
        "orbital_period" : "1223.117125999148",
        "perihelion_distance" : ".6599405221968772",
        "perihelion_argument" : "246.8813840863509",
        "aphelion_distance" : "3.816605728289592",
        "perihelion_time" : "2458343.398764961315",
        "mean_anomaly" : "259.0746243658113",
        "mean_motion" : ".2943299479237697",
        "equinox" : "J2000"
      }
    }, {
      "links" : {
        "self" : "https://api.nasa.gov/neo/rest/v1/neo/3508128?api_key=t0TVs3DtDT2H8Oy2Zy8m2eVrNsAVKAexjcZXUckd"
      },
      "neo_reference_id" : "3508128",
      "name" : "(2010 CO44)",
      "nasa_jpl_url" : "http://ssd.jpl.nasa.gov/sbdb.cgi?sstr=3508128",
      "absolute_magnitude_h" : 24.6,
      "estimated_diameter" : {
        "kilometers" : {
          "estimated_diameter_min" : 0.0319561887,
          "estimated_diameter_max" : 0.0714562102
        },
        "meters" : {
          "estimated_diameter_min" : 31.9561886721,
          "estimated_diameter_max" : 71.4562101727
        },
        "miles" : {
          "estimated_diameter_min" : 0.0198566489,
          "estimated_diameter_max" : 0.0444008168
        },
        "feet" : {
          "estimated_diameter_min" : 104.8431420431,
          "estimated_diameter_max" : 234.436392583
        }
      },
      "is_potentially_hazardous_asteroid" : false,
      "close_approach_data" : [ {
        "close_approach_date" : "1998-08-22",
        "epoch_date_close_approach" : 903769200000,
        "relative_velocity" : {
          "kilometers_per_second" : "5.2905483852",
          "kilometers_per_hour" : "19045.9741868097",
          "miles_per_hour" : "11834.4276829096"
        },
        "miss_distance" : {
          "astronomical" : "0.0973505564",
          "lunar" : "37.8693656921",
          "kilometers" : "14563436",
          "miles" : "9049299"
        },
        "orbiting_body" : "Earth"
      } ],
      "orbital_data" : {
        "orbit_id" : "11",
        "orbit_determination_date" : "2017-04-06 08:58:23",
        "orbit_uncertainty" : "6",
        "minimum_orbit_intersection" : ".0278381",
        "jupiter_tisserand_invariant" : "5.738",
        "epoch_osculation" : "2458000.5",
        "eccentricity" : ".2307172258311521",
        "semi_major_axis" : "1.07057714636316",
        "inclination" : "6.18103402523264",
        "ascending_node_longitude" : "327.5103412772995",
        "orbital_period" : "404.5995349438589",
        "perihelion_distance" : ".8235765571160206",
        "perihelion_argument" : "73.7878626418416",
        "aphelion_distance" : "1.3175777356103",
        "perihelion_time" : "2457987.841248600185",
        "mean_anomaly" : "11.26336070694133",
        "mean_motion" : ".8897686944943042",
        "equinox" : "J2000"
      }
    } ]
  }
}